[{"OBJECT_NAME":"GOOD ANCESTOR KILAKILA","OBJECT_ID":"2025-135A","EPOCH":"2026-03-09T20:23:34.960416","MEAN_MOTION":15.223265,"ECCENTRICITY":0.00056529,"INCLINATION":97.4506,"RA_OF_ASC_NODE":184.7346,"ARG_OF_PERICENTER":162.0939,"MEAN_ANOMALY":198.0498,"EPHEMERIS_TYPE":0,"CLASSIFICATION_TYPE":"U","NORAD_CAT_ID":64528,"ELEMENT_SET_NO":999,"REV_AT_EPOCH":3976,"BSTAR":0.00051974795,"MEAN_MOTION_DOT":0.00011925,"MEAN_MOTION_DDOT":0},{"OBJECT_NAME":"SL-8 R\/B","OBJECT_ID":"1994-061B","EPOCH":"2026-03-09T22:11:39.346944","MEAN_MOTION":14.28263907,"ECCENTRICITY":0.05977746,"INCLINATION":82.9619,"RA_OF_ASC_NODE":21.337,"ARG_OF_PERICENTER":318.8014,"MEAN_ANOMALY":36.9463,"EPHEMERIS_TYPE":0,"CLASSIFICATION_TYPE":"U","NORAD_CAT_ID":23279,"ELEMENT_SET_NO":999,"REV_AT_EPOCH":57143,"BSTAR":0.00083232798,"MEAN_MOTION_DOT":0.00016203,"MEAN_MOTION_DDOT":0}]
